start=new Date('2022-07-22T00:00:00.000Z').valueOf();
sats=[{"COUNTRY_CODE":"US","OBJECT_ID":"2020-055BA","CLASSIFICATION_TYPE":"U","EPHEMERIS_TYPE":"0","PERIAPSIS":"546.316","MEAN_ANOMALY":"286.9639","PERIOD":"95.593","APOAPSIS":"548.228","EPOCH":"2022-07-21T17:58:58.937664","BSTAR":"-0.00032732000000","SITE":"AFETR","TLE_LINE1":"1 46075U 20055BA  22202.74929326 -.00005151  00000-0 -32732-3 0  9998","MEAN_ELEMENT_THEORY":"SGP4","ELEMENT_SET_NO":"999","NORAD_CAT_ID":"46075","ECCENTRICITY":"0.00013800","TIME_SYSTEM":"UTC","GP_ID":"208602908","SEMIMAJOR_AXIS":"6925.407","REF_FRAME":"TEME","RA_OF_ASC_NODE":"293.4737","LAUNCH_DATE":"2020-08-07","MEAN_MOTION":"15.06380902","MEAN_MOTION_DOT":"-0.00005151","CENTER_NAME":"EARTH","DECAY_DATE":null,"OBJECT_NAME":"STARLINK-1551","MEAN_MOTION_DDOT":"0.0000000000000","OBJECT_TYPE":"PAYLOAD","ARG_OF_PERICENTER":"73.1502","REV_AT_EPOCH":"10930","INCLINATION":"53.0534","RCS_SIZE":"LARGE","FILE":"3519265","TLE_LINE2":"2 46075  53.0534 293.4737 0001380  73.1502 286.9639 15.06380902109309"},{"MEAN_MOTION_DDOT":"0.0000000000000","OBJECT_NAME":"STARLINK-1552","OBJECT_TYPE":"PAYLOAD","MEAN_MOTION_DOT":"-0.00002758","MEAN_MOTION":"15.06391629","LAUNCH_DATE":"2020-08-07","DECAY_DATE":null,"CENTER_NAME":"EARTH","REF_FRAME":"TEME","RA_OF_ASC_NODE":"294.2715","SEMIMAJOR_AXIS":"6925.374","FILE":"3519265","TLE_LINE2":"2 46076  53.0545 294.2715 0001781  50.3525 309.7621 15.06391629109262","INCLINATION":"53.0545","RCS_SIZE":"LARGE","REV_AT_EPOCH":"10926","ARG_OF_PERICENTER":"50.3525","EPOCH":"2022-07-21T13:49:30.871200","BSTAR":"-0.00016636000000","SITE":"AFETR","MEAN_ANOMALY":"309.7621","PERIAPSIS":"546.006","APOAPSIS":"548.473","PERIOD":"95.593","OBJECT_ID":"2020-055BB","CLASSIFICATION_TYPE":"U","COUNTRY_CODE":"US","EPHEMERIS_TYPE":"0","ELEMENT_SET_NO":"999","TIME_SYSTEM":"UTC","NORAD_CAT_ID":"46076","ECCENTRICITY":"0.00017810","GP_ID":"208601669","MEAN_ELEMENT_THEORY":"SGP4","TLE_LINE1":"1 46076U 20055BB  22202.57605175 -.00002758  00000-0 -16636-3 0  9998"},{"INCLINATION":"53.0537","RCS_SIZE":"LARGE","FILE":"3519265","TLE_LINE2":"2 46077  53.0537 293.7592 0001483  73.4087 286.7065 15.06386118109251","ARG_OF_PERICENTER":"73.4087","REV_AT_EPOCH":"10925","MEAN_MOTION_DOT":"-0.00004919","MEAN_MOTION":"15.06386118","LAUNCH_DATE":"2020-08-07","DECAY_DATE":null,"CENTER_NAME":"EARTH","MEAN_MOTION_DDOT":"0.0000000000000","OBJECT_NAME":"STARLINK-1559","OBJECT_TYPE":"PAYLOAD","RA_OF_ASC_NODE":"293.7592","REF_FRAME":"TEME","SEMIMAJOR_AXIS":"6925.391","ELEMENT_SET_NO":"999","TIME_SYSTEM":"UTC","NORAD_CAT_ID":"46077","ECCENTRICITY":"0.00014830","GP_ID":"208601919","TLE_LINE1":"1 46077U 20055BC  22202.69031945 -.00004919  00000-0 -31167-3 0  9997","MEAN_ELEMENT_THEORY":"SGP4","MEAN_ANOMALY":"286.7065","PERIAPSIS":"546.229","APOAPSIS":"548.283","PERIOD":"95.593","BSTAR":"-0.00031167000000","EPOCH":"2022-07-21T16:34:03.600480","SITE":"AFETR","OBJECT_ID":"2020-055BC","CLASSIFICATION_TYPE":"U","COUNTRY_CODE":"US","EPHEMERIS_TYPE":"0"},{"GP_ID":"208602663","ELEMENT_SET_NO":"999","ECCENTRICITY":"0.00015240","NORAD_CAT_ID":"46078","TIME_SYSTEM":"UTC","TLE_LINE1":"1 46078U 20055BD  22202.86725008  .00006457  00000-0  45209-3 0  9996","MEAN_ELEMENT_THEORY":"SGP4","APOAPSIS":"548.302","PERIOD":"95.593","MEAN_ANOMALY":"296.8401","PERIAPSIS":"546.191","SITE":"AFETR","EPOCH":"2022-07-21T20:48:50.406912","BSTAR":"0.00045209000000","EPHEMERIS_TYPE":"0","OBJECT_ID":"2020-055BD","CLASSIFICATION_TYPE":"U","COUNTRY_CODE":"US","RCS_SIZE":"LARGE","INCLINATION":"53.0534","TLE_LINE2":"2 46078  53.0534 292.9628 0001524  63.2743 296.8401 15.06389257109299","FILE":"3519265","ARG_OF_PERICENTER":"63.2743","REV_AT_EPOCH":"10929","DECAY_DATE":null,"CENTER_NAME":"EARTH","MEAN_MOTION_DOT":"0.00006457","MEAN_MOTION":"15.06389257","LAUNCH_DATE":"2020-08-07","OBJECT_TYPE":"PAYLOAD","MEAN_MOTION_DDOT":"0.0000000000000","OBJECT_NAME":"STARLINK-1563","REF_FRAME":"TEME","RA_OF_ASC_NODE":"292.9628","SEMIMAJOR_AXIS":"6925.381"},{"REV_AT_EPOCH":"10930","ARG_OF_PERICENTER":"88.3705","FILE":"3519265","TLE_LINE2":"2 46079  53.0540 293.5855 0001269  88.3705 271.7429 15.06378371109307","INCLINATION":"53.0540","RCS_SIZE":"LARGE","SEMIMAJOR_AXIS":"6925.415","RA_OF_ASC_NODE":"293.5855","REF_FRAME":"TEME","OBJECT_NAME":"STARLINK-1566","MEAN_MOTION_DDOT":"0.0000000000000","OBJECT_TYPE":"PAYLOAD","LAUNCH_DATE":"2020-08-07","MEAN_MOTION":"15.06378371","MEAN_MOTION_DOT":"-0.00003074","CENTER_NAME":"EARTH","DECAY_DATE":null,"MEAN_ELEMENT_THEORY":"SGP4","TLE_LINE1":"1 46079U 20055BE  22202.72719050 -.00003074  00000-0 -18768-3 0  9996","ELEMENT_SET_NO":"999","NORAD_CAT_ID":"46079","ECCENTRICITY":"0.00012690","TIME_SYSTEM":"UTC","GP_ID":"208602409","COUNTRY_CODE":"US","OBJECT_ID":"2020-055BE","CLASSIFICATION_TYPE":"U","EPHEMERIS_TYPE":"0","EPOCH":"2022-07-21T17:27:09.259200","BSTAR":"-0.00018768000000","SITE":"AFETR","PERIAPSIS":"546.401","MEAN_ANOMALY":"271.7429","PERIOD":"95.594","APOAPSIS":"548.159"},{"MEAN_ELEMENT_THEORY":"SGP4","TLE_LINE1":"1 46080U 20055BF  22202.61934885 -.00002559  00000-0 -15300-3 0  9997","GP_ID":"208601169","TIME_SYSTEM":"UTC","ELEMENT_SET_NO":"999","NORAD_CAT_ID":"46080","ECCENTRICITY":"0.00018250","EPHEMERIS_TYPE":"0","CLASSIFICATION_TYPE":"U","OBJECT_ID":"2020-055BF","COUNTRY_CODE":"US","SITE":"AFETR","EPOCH":"2022-07-21T14:51:51.740640","BSTAR":"-0.00015300000000","APOAPSIS":"548.522","PERIOD":"95.593","MEAN_ANOMALY":"302.0083","PERIAPSIS":"545.994","REV_AT_EPOCH":"10926","ARG_OF_PERICENTER":"58.1083","TLE_LINE2":"2 46080  53.0550 294.0533 0001825  58.1083 302.0083 15.06385567109265","FILE":"3519265","RCS_SIZE":"LARGE","INCLINATION":"53.0550","RA_OF_ASC_NODE":"294.0533","REF_FRAME":"TEME","SEMIMAJOR_AXIS":"6925.393","OBJECT_TYPE":"PAYLOAD","MEAN_MOTION_DDOT":"0.0000000000000","OBJECT_NAME":"STARLINK-1568","DECAY_DATE":null,"CENTER_NAME":"EARTH","MEAN_MOTION_DOT":"-0.00002559","LAUNCH_DATE":"2020-08-07","MEAN_MOTION":"15.06385567"},{"ELEMENT_SET_NO":"999","NORAD_CAT_ID":"46081","TIME_SYSTEM":"UTC","ECCENTRICITY":"0.00015390","GP_ID":"208601419","MEAN_ELEMENT_THEORY":"SGP4","TLE_LINE1":"1 46081U 20055BG  22202.65346350 -.00004888  00000-0 -30961-3 0  9993","EPOCH":"2022-07-21T15:40:59.246400","BSTAR":"-0.00030961000000","SITE":"AFETR","PERIAPSIS":"546.205","MEAN_ANOMALY":"288.6989","PERIOD":"95.593","APOAPSIS":"548.337","COUNTRY_CODE":"US","CLASSIFICATION_TYPE":"U","OBJECT_ID":"2020-055BG","EPHEMERIS_TYPE":"0","FILE":"3519265","TLE_LINE2":"2 46081  53.0537 293.9081 0001539  71.4167 288.6989 15.06381350109282","INCLINATION":"53.0537","RCS_SIZE":"LARGE","REV_AT_EPOCH":"10928","ARG_OF_PERICENTER":"71.4167","OBJECT_NAME":"STARLINK-1571","MEAN_MOTION_DDOT":"0.0000000000000","OBJECT_TYPE":"PAYLOAD","MEAN_MOTION":"15.06381350","LAUNCH_DATE":"2020-08-07","MEAN_MOTION_DOT":"-0.00004888","CENTER_NAME":"EARTH","DECAY_DATE":null,"SEMIMAJOR_AXIS":"6925.406","REF_FRAME":"TEME","RA_OF_ASC_NODE":"293.9081"},{"APOAPSIS":"548.146","PERIOD":"95.593","MEAN_ANOMALY":"276.7770","PERIAPSIS":"546.360","SITE":"AFETR","BSTAR":"-0.00004655400000","EPOCH":"2022-07-21T14:37:18.391296","EPHEMERIS_TYPE":"0","OBJECT_ID":"2020-055BH","CLASSIFICATION_TYPE":"U","COUNTRY_CODE":"US","GP_ID":"208602163","NORAD_CAT_ID":"46082","ELEMENT_SET_NO":"999","ECCENTRICITY":"0.00012900","TIME_SYSTEM":"UTC","TLE_LINE1":"1 46082U 20055BH  22202.60924064 -.00000974  00000-0 -46554-4 0  9991","MEAN_ELEMENT_THEORY":"SGP4","DECAY_DATE":null,"CENTER_NAME":"EARTH","MEAN_MOTION_DOT":"-0.00000974","LAUNCH_DATE":"2020-08-07","MEAN_MOTION":"15.06387127","OBJECT_TYPE":"PAYLOAD","MEAN_MOTION_DDOT":"0.0000000000000","OBJECT_NAME":"STARLINK-1578","RA_OF_ASC_NODE":"294.1237","REF_FRAME":"TEME","SEMIMAJOR_AXIS":"6925.388","RCS_SIZE":"LARGE","INCLINATION":"53.0551","TLE_LINE2":"2 46082  53.0551 294.1237 0001290  83.3366 276.7770 15.06387127109286","FILE":"3519265","ARG_OF_PERICENTER":"83.3366","REV_AT_EPOCH":"10928"},{"ARG_OF_PERICENTER":"102.2268","REV_AT_EPOCH":"10928","INCLINATION":"53.0570","RCS_SIZE":"LARGE","FILE":"3519265","TLE_LINE2":"2 46083  53.0570 293.9451 0001471 102.2268 257.8886 15.06394014109287","SEMIMAJOR_AXIS":"6925.367","REF_FRAME":"TEME","RA_OF_ASC_NODE":"293.9451","MEAN_MOTION":"15.06394014","LAUNCH_DATE":"2020-08-07","MEAN_MOTION_DOT":"-0.00002341","CENTER_NAME":"EARTH","DECAY_DATE":null,"OBJECT_NAME":"STARLINK-1579","MEAN_MOTION_DDOT":"0.0000000000000","OBJECT_TYPE":"PAYLOAD","TLE_LINE1":"1 46083U 20055BJ  22202.64609187 -.00002341  00000-0 -13832-3 0  9994","MEAN_ELEMENT_THEORY":"SGP4","ELEMENT_SET_NO":"999","TIME_SYSTEM":"UTC","NORAD_CAT_ID":"46083","ECCENTRICITY":"0.00014710","GP_ID":"208602909","COUNTRY_CODE":"US","OBJECT_ID":"2020-055BJ","CLASSIFICATION_TYPE":"U","EPHEMERIS_TYPE":"0","PERIAPSIS":"546.213","MEAN_ANOMALY":"257.8886","PERIOD":"95.593","APOAPSIS":"548.251","EPOCH":"2022-07-21T15:30:22.337568","BSTAR":"-0.00013832000000","SITE":"AFETR"},{"SEMIMAJOR_AXIS":"6925.412","REF_FRAME":"TEME","RA_OF_ASC_NODE":"133.1940","MEAN_MOTION":"15.06379439","LAUNCH_DATE":"2020-08-18","MEAN_MOTION_DOT":"-0.00003737","CENTER_NAME":"EARTH","DECAY_DATE":null,"OBJECT_NAME":"STARLINK-1585","MEAN_MOTION_DDOT":"0.0000000000000","OBJECT_TYPE":"PAYLOAD","ARG_OF_PERICENTER":"83.8622","REV_AT_EPOCH":"10635","INCLINATION":"53.0548","RCS_SIZE":"LARGE","FILE":"3519265","TLE_LINE2":"2 46117  53.0548 133.1940 0001285  83.8622 276.2513 15.06379439106350","COUNTRY_CODE":"US","CLASSIFICATION_TYPE":"U","OBJECT_ID":"2020-057A","EPHEMERIS_TYPE":"0","PERIAPSIS":"546.387","MEAN_ANOMALY":"276.2513","PERIOD":"95.593","APOAPSIS":"548.166","EPOCH":"2022-07-21T19:29:13.167744","BSTAR":"-0.00023222000000","SITE":"AFETR","TLE_LINE1":"1 46117U 20057A   22202.81195796 -.00003737  00000-0 -23222-3 0  9993","MEAN_ELEMENT_THEORY":"SGP4","ECCENTRICITY":"0.00012850","ELEMENT_SET_NO":"999","NORAD_CAT_ID":"46117","TIME_SYSTEM":"UTC","GP_ID":"208602413"}];
